COSMOS 2433 (720)       
1 32275U 07052A   24058.94308585 -.00000066  00000+0  00000+0 0  9995
2 32275  65.9723 344.0589 0003226 285.3789  74.6130  2.13104067127152
COSMOS 2432 (719)       
1 32276U 07052B   24058.56138993 -.00000067  00000+0  00000+0 0  9999
2 32276  65.9874 344.1838 0011783 328.7353  44.9972  2.13103399127177
COSMOS 2434 (721)       
1 32393U 07065A   24056.04285369  .00000033  00000+0  00000+0 0  9996
2 32393  64.3264 220.4078 0004764  76.6199 110.2312  2.13103191125806
COSMOS 2436 (723)       
1 32395U 07065C   24058.22191200  .00000053  00000+0  00000+0 0  9992
2 32395  64.3351 220.3973 0016996   8.5420 185.3164  2.13102917125802
COSMOS 2456 (730)       
1 36111U 09070A   24059.35243179  .00000027  00000+0  00000+0 0  9999
2 36111  64.5626  99.7260 0005669 298.4517  63.8557  2.13099066110538
COSMOS 2457 (733)       
1 36112U 09070B   24059.64673323  .00000026  00000+0  00000+0 0  9999
2 36112  64.5470  99.5770 0003954 194.1553 166.1140  2.13101238110571
COSMOS 2460 (732)       
1 36402U 10007C   24057.57812951 -.00000070  00000+0  00000+0 0  9995
2 36402  65.8315 342.7897 0002377 346.1597 217.6726  2.13106317108799
COSMOS 2476 (744)       
1 37867U 11064A   24059.24077374  .00000028  00000+0  00000+0 0  9995
2 37867  64.8385 101.3239 0024435 239.6168 307.9031  2.13101730 95868
COSMOS 2477 (745)       
1 37868U 11064B   24059.34370802  .00000028  00000+0  00000+0 0  9999
2 37868  64.8457 101.3918 0021653 240.8962 203.3612  2.13101534 95864
COSMOS 2475 (743)       
1 37869U 11064C   24059.27618969  .00000028  00000+0  00000+0 0  9991
2 37869  64.8527 101.4079 0026636 254.7591  96.3298  2.13101764 95865
COSMOS 2485 (747)       
1 39155U 13019A   24057.99978991  .00000031  00000+0  00000+0 0  9998
2 39155  64.9966 101.9271 0024661 235.7735 124.0754  2.13101794 84358
COSMOS 2492 (754)       
1 39620U 14012A   24059.36297894 -.00000065  00000+0  00000+0 0  9996
2 39620  65.7131 342.3231 0014642 324.9835  34.9510  2.13103209 77348
COSMOS 2500 (755)       
1 40001U 14032A   24059.07460856 -.00000066  00000+0  00000+0 0  9992
2 40001  65.6509 342.1465 0004932 218.9575 141.0375  2.13106180 75553
COSMOS 2501 (702K)      
1 40315U 14075A   24057.91875117  .00000048  00000+0  00000+0 0  9997
2 40315  63.6287 219.5438 0018428 203.8367 156.0480  2.13101410 71927
COSMOS 2514 (751)       
1 41330U 16008A   24059.30850213 -.00000065  00000+0  00000+0 0  9998
2 41330  65.4465 341.6757 0008924 221.3102 138.6539  2.13102801 62720
COSMOS 2522 (752)       
1 42939U 17055A   24058.21085808  .00000052  00000+0  00000+0 0  9991
2 42939  64.0894 220.5605 0005714 229.8144 130.1068  2.13101940 50057
COSMOS 2527 (756)       
1 43508U 18053A   24059.57760006  .00000028  00000+0  00000+0 0  9996
2 43508  65.1579 102.0030 0009916 240.0147 119.9651  2.13102441 44383
COSMOS 2529 (757)       
1 43687U 18086A   24058.26892270  .00000053  00000+0  00000+0 0  9992
2 43687  64.3049 221.0415 0006950 262.9079  96.9848  2.13102102 41366
COSMOS 2534 (758)       
1 44299U 19030A   24057.79837685  .00000048  00000+0  00000+0 0  9992
2 44299  64.3775 221.0003 0009505 290.5646 202.5386  2.13102221 36998
COSMOS 2544 (759)       
1 44850U 19088A   24059.52151918  .00000028  00000+0  00000+0 0  9997
2 44850  65.1443 101.8442 0015195 258.9082 100.9992  2.13102210 32806
COSMOS 2545 (760)       
1 45358U 20018A   24055.96432948 -.00000077  00000+0  00000+0 0  9990
2 45358  64.7878 341.8924 0009240 259.8965 100.0211  2.13102718 30695
COSMOS 2547 (705K)      
1 46805U 20075A   24058.96787662  .00000062  00000+0  00000+0 0  9993
2 46805  64.6060 220.5693 0005664 234.4254 125.4947  2.13103077 26003
COSMOS 2557 (706K)      
1 52984U 22075A   24059.13185509 -.00000068  00000+0  00000+0 0  9999
2 52984  64.7092 343.9233 0012851 287.1502  72.7373  2.13101787 12818
COSMOS 2559 (707K)      
1 54031U 22130A   24058.13587065 -.00000071  00000+0  00000+0 0  9992
2 54031  64.6811 344.0794 0005778 237.8028 122.1666  2.13101201 10768
COSMOS 2564 (761)       
1 54377U 22161A   24059.26624982  .00000065  00000+0  00000+0 0  9996
2 54377  64.7471 220.6442 0007682 207.4069 152.5264  2.13102160  9738
COSMOS 2569 (703K)      
1 57517U 23114A   24058.81520256  .00000029  00000+0  00000+0 0  9993
2 57517  64.8691 101.0573 0012437 292.5988  67.3498  2.13104248  4352
